0 SL-8 DEB
1 21110U 91009L   13281.46878110  .00000340  00000-0  36495-2 0  5693
2 21110 074.0513 131.9965 0225710 297.5679 135.4371 12.08950648998703
0 SL-8 DEB
1 21110U 91009L   13283.52312149  .00000420  00000-0  44682-2 0  5705
2 21110 074.0511 129.4718 0225699 294.7145 076.3790 12.08952978998955
0 SL-8 DEB
1 21110U 91009L   13285.78632267  .00000367  00000-0  39320-2 0  5715
2 21110 074.0510 126.6904 0225667 291.5711 206.3457 12.08955209999225
0 SL-8 DEB
1 21110U 91009L   13288.01560633  .00000333  00000-0  35766-2 0  5725
2 21110 074.0509 123.9506 0225653 288.4693 188.7169 12.08957666999491
0 SL-8 DEB
1 21110U 91009L   13290.49060444  .00000214  00000-0  23529-2 0  5738
2 21110 074.0511 120.9089 0225638 285.0251 160.5179 12.08959983999799
0 SL-8 DEB
1 21110U 91009L   13292.73463999  .00000165  00000-0  18485-2 0  5740
2 21110 074.0514 118.1510 0225675 281.9020 207.1304 12.08961237    66
0 SL-8 DEB
1 21110U 91009L   13294.87105449  .00000134  00000-0  15313-2 0  5754
2 21110 074.0514 115.5254 0225762 278.9305 145.3558 12.08962319   326
